[{"OBJECT_NAME":"STARLINK-5030","OBJECT_ID":"2023-014AD","EPOCH":"2026-03-09T21:37:59.174112","MEAN_MOTION":14.98326009,"ECCENTRICITY":0.00033298,"INCLINATION":69.9989,"RA_OF_ASC_NODE":83.9359,"ARG_OF_PERICENTER":270.0757,"MEAN_ANOMALY":90.0021,"EPHEMERIS_TYPE":0,"CLASSIFICATION_TYPE":"U","NORAD_CAT_ID":55418,"ELEMENT_SET_NO":999,"REV_AT_EPOCH":17159,"BSTAR":-2.2686753e-5,"MEAN_MOTION_DOT":-3.64e-6,"MEAN_MOTION_DDOT":0},{"OBJECT_NAME":"SITRO-AIS 20","OBJECT_ID":"2024-199Z","EPOCH":"2026-03-09T22:53:15.769536","MEAN_MOTION":14.97385198,"ECCENTRICITY":0.00069441,"INCLINATION":97.3309,"RA_OF_ASC_NODE":274.6556,"ARG_OF_PERICENTER":50.5148,"MEAN_ANOMALY":309.6689,"EPHEMERIS_TYPE":0,"CLASSIFICATION_TYPE":"U","NORAD_CAT_ID":61758,"ELEMENT_SET_NO":999,"REV_AT_EPOCH":12028,"BSTAR":0.00032349417,"MEAN_MOTION_DOT":3.708e-5,"MEAN_MOTION_DDOT":0}]
